FENGYUN 1C DEB          
1 31989U 99025CPS 26115.44838513  .00000526  00000+0  41046-3 0  9996
2 31989  99.1900 180.9888 0114909 295.8146  79.7881 13.93807106955806
FENGYUN 1C DEB          
1 31990U 99025CPT 26115.50929519  .00000158  00000+0  22327-3 0  9994
2 31990  99.1493 133.9141 0259675 201.8410 315.2903 13.57275232645860
FENGYUN 1C DEB          
1 31991U 99025CPU 26096.84499673  .00000102  00000+0  16290-3 0  9994
2 31991 100.4862 299.3194 0244699 129.6086 232.6934 13.61318074636535
FENGYUN 1C DEB          
1 31992U 99025CPV 26113.57656133  .00000645  00000+0  73434-3 0  9996
2 31992  99.1827  63.1618 0542200  70.1544 295.7170 13.23205228556185
FENGYUN 1C DEB          
1 31993U 99025CPW 26109.64211655  .00001128  00000+0  15911-2 0  9998
2 31993  99.2362  73.5453 0419989 184.1325 175.6287 13.27929920906408
FENGYUN 1C DEB          
1 31994U 99025CPX 26115.20072987  .00000155  00000+0  12695-3 0  9997
2 31994  98.5508 104.8032 0162427 134.7212 226.7310 13.95825625586582
FENGYUN 1C DEB          
1 31997U 99025CQA 26112.50778430  .00001109  00000+0  11851-2 0  9998
2 31997 102.5014 197.2611 0283135 338.6389  20.3113 13.61188253634622
FENGYUN 1C DEB          
1 32086U 99025CQC 26115.40501142  .00002003  00000+0  17030-2 0  9993
2 32086  99.2617 170.4069 0301462 146.7353 215.3148 13.69543064636108
FENGYUN 1C DEB          
1 32088U 99025CQE 26113.45175860  .00002868  00000+0  37645-2 0  9995
2 32088 102.4075   9.9966 0461820  73.8511 291.2911 13.25579677615893
FENGYUN 1C DEB          
1 32089U 99025CQF 26111.74647871  .00000706  00000+0  36729-3 0  9994
2 32089  98.6550 118.3169 0112906 112.2626 249.0567 14.14417284650533
FENGYUN 1C DEB          
1 32093U 99025CQK 26115.06490221  .00000692  00000+0  23673-3 0  9991
2 32093  98.9079 337.8611 0078128 320.6893  38.8637 14.37976547984332
FENGYUN 1C DEB          
1 32094U 99025CQL 26110.91826356  .00000395  00000+0  24326-3 0  9999
2 32094  98.7563 102.9678 0033552 262.0129  97.7234 14.10919628961864
FENGYUN 1C DEB          
1 32095U 99025CQM 26115.77126767  .00000414  00000+0  22356-3 0  9991
2 32095  98.6336 132.3862 0079184  68.0643 292.8925 14.16209552967146
FENGYUN 1C DEB          
1 32096U 99025CQN 26113.03821518  .00001052  00000+0  81382-3 0  9998
2 32096  99.0564 143.8293 0137731 143.6711 217.3895 13.90566490946861
FENGYUN 1C DEB          
1 32098U 99025CQQ 26108.70935061  .00000458  00000+0  19238-3 0  9997
2 32098  98.6224 103.0116 0195577 112.5336 249.6670 14.20525814660303
FENGYUN 1C DEB          
1 32101U 99025CQT 26115.53576082  .00001680  00000+0  10562-2 0  9993
2 32101  99.0293  18.3873 0117464 227.2857 131.8373 14.02445821950570
