[{"OBJECT_NAME":"FENGYUN 1C DEB","OBJECT_ID":"1999-025CPS","EPOCH":"2026-04-25T10:45:40.475232","MEAN_MOTION":13.93807106,"ECCENTRICITY":0.0114909,"INCLINATION":99.19,"RA_OF_ASC_NODE":180.9888,"ARG_OF_PERICENTER":295.8146,"MEAN_ANOMALY":79.7881,"EPHEMERIS_TYPE":0,"CLASSIFICATION_TYPE":"U","NORAD_CAT_ID":31989,"ELEMENT_SET_NO":999,"REV_AT_EPOCH":95580,"BSTAR":0.00041046,"MEAN_MOTION_DOT":5.26e-6,"MEAN_MOTION_DDOT":0},{"OBJECT_NAME":"FENGYUN 1C DEB","OBJECT_ID":"1999-025CPT","EPOCH":"2026-04-25T12:13:23.104416","MEAN_MOTION":13.57275232,"ECCENTRICITY":0.0259675,"INCLINATION":99.1493,"RA_OF_ASC_NODE":133.9141,"ARG_OF_PERICENTER":201.841,"MEAN_ANOMALY":315.2903,"EPHEMERIS_TYPE":0,"CLASSIFICATION_TYPE":"U","NORAD_CAT_ID":31990,"ELEMENT_SET_NO":999,"REV_AT_EPOCH":64586,"BSTAR":0.00022327,"MEAN_MOTION_DOT":1.58e-6,"MEAN_MOTION_DDOT":0},{"OBJECT_NAME":"FENGYUN 1C DEB","OBJECT_ID":"1999-025CPU","EPOCH":"2026-04-06T20:16:47.717472","MEAN_MOTION":13.61318074,"ECCENTRICITY":0.02446992,"INCLINATION":100.4862,"RA_OF_ASC_NODE":299.3194,"ARG_OF_PERICENTER":129.6086,"MEAN_ANOMALY":232.6934,"EPHEMERIS_TYPE":0,"CLASSIFICATION_TYPE":"U","NORAD_CAT_ID":31991,"ELEMENT_SET_NO":999,"REV_AT_EPOCH":63653,"BSTAR":0.00016289977,"MEAN_MOTION_DOT":1.02e-6,"MEAN_MOTION_DDOT":0},{"OBJECT_NAME":"FENGYUN 1C DEB","OBJECT_ID":"1999-025CPV","EPOCH":"2026-04-23T13:50:14.898912","MEAN_MOTION":13.23205228,"ECCENTRICITY":0.05422,"INCLINATION":99.1827,"RA_OF_ASC_NODE":63.1618,"ARG_OF_PERICENTER":70.1544,"MEAN_ANOMALY":295.717,"EPHEMERIS_TYPE":0,"CLASSIFICATION_TYPE":"U","NORAD_CAT_ID":31992,"ELEMENT_SET_NO":999,"REV_AT_EPOCH":55618,"BSTAR":0.00073433938,"MEAN_MOTION_DOT":6.45e-6,"MEAN_MOTION_DDOT":0},{"OBJECT_NAME":"FENGYUN 1C DEB","OBJECT_ID":"1999-025CPW","EPOCH":"2026-04-19T15:24:38.869920","MEAN_MOTION":13.2792992,"ECCENTRICITY":0.04199894,"INCLINATION":99.2362,"RA_OF_ASC_NODE":73.5453,"ARG_OF_PERICENTER":184.1325,"MEAN_ANOMALY":175.6287,"EPHEMERIS_TYPE":0,"CLASSIFICATION_TYPE":"U","NORAD_CAT_ID":31993,"ELEMENT_SET_NO":999,"REV_AT_EPOCH":90640,"BSTAR":0.0015911058,"MEAN_MOTION_DOT":1.128e-5,"MEAN_MOTION_DDOT":0},{"OBJECT_NAME":"FENGYUN 1C DEB","OBJECT_ID":"1999-025CPX","EPOCH":"2026-04-25T04:49:03.060768","MEAN_MOTION":13.95825625,"ECCENTRICITY":0.01624274,"INCLINATION":98.5508,"RA_OF_ASC_NODE":104.8032,"ARG_OF_PERICENTER":134.7212,"MEAN_ANOMALY":226.731,"EPHEMERIS_TYPE":0,"CLASSIFICATION_TYPE":"U","NORAD_CAT_ID":31994,"ELEMENT_SET_NO":999,"REV_AT_EPOCH":58658,"BSTAR":0.00012694604,"MEAN_MOTION_DOT":1.55e-6,"MEAN_MOTION_DDOT":0},{"OBJECT_NAME":"FENGYUN 1C DEB","OBJECT_ID":"1999-025CQA","EPOCH":"2026-04-22T12:11:12.563520","MEAN_MOTION":13.61188253,"ECCENTRICITY":0.02831351,"INCLINATION":102.5014,"RA_OF_ASC_NODE":197.2611,"ARG_OF_PERICENTER":338.6389,"MEAN_ANOMALY":20.3113,"EPHEMERIS_TYPE":0,"CLASSIFICATION_TYPE":"U","NORAD_CAT_ID":31997,"ELEMENT_SET_NO":999,"REV_AT_EPOCH":63462,"BSTAR":0.0011851146,"MEAN_MOTION_DOT":1.109e-5,"MEAN_MOTION_DDOT":0},{"OBJECT_NAME":"FENGYUN 1C DEB","OBJECT_ID":"1999-025CQC","EPOCH":"2026-04-25T09:43:12.986688","MEAN_MOTION":13.69543064,"ECCENTRICITY":0.0301462,"INCLINATION":99.2617,"RA_OF_ASC_NODE":170.4069,"ARG_OF_PERICENTER":146.7353,"MEAN_ANOMALY":215.3148,"EPHEMERIS_TYPE":0,"CLASSIFICATION_TYPE":"U","NORAD_CAT_ID":32086,"ELEMENT_SET_NO":999,"REV_AT_EPOCH":63610,"BSTAR":0.001703,"MEAN_MOTION_DOT":2.003e-5,"MEAN_MOTION_DDOT":0},{"OBJECT_NAME":"FENGYUN 1C DEB","OBJECT_ID":"1999-025CQE","EPOCH":"2026-04-23T10:50:31.943040","MEAN_MOTION":13.25579677,"ECCENTRICITY":0.04618203,"INCLINATION":102.4075,"RA_OF_ASC_NODE":9.9966,"ARG_OF_PERICENTER":73.8511,"MEAN_ANOMALY":291.2911,"EPHEMERIS_TYPE":0,"CLASSIFICATION_TYPE":"U","NORAD_CAT_ID":32088,"ELEMENT_SET_NO":999,"REV_AT_EPOCH":61589,"BSTAR":0.0037644628,"MEAN_MOTION_DOT":2.868e-5,"MEAN_MOTION_DDOT":0},{"OBJECT_NAME":"FENGYUN 1C DEB","OBJECT_ID":"1999-025CQF","EPOCH":"2026-04-21T17:54:55.760544","MEAN_MOTION":14.14417284,"ECCENTRICITY":0.01129065,"INCLINATION":98.655,"RA_OF_ASC_NODE":118.3169,"ARG_OF_PERICENTER":112.2626,"MEAN_ANOMALY":249.0567,"EPHEMERIS_TYPE":0,"CLASSIFICATION_TYPE":"U","NORAD_CAT_ID":32089,"ELEMENT_SET_NO":999,"REV_AT_EPOCH":65053,"BSTAR":0.00036728835,"MEAN_MOTION_DOT":7.06e-6,"MEAN_MOTION_DDOT":0},{"OBJECT_NAME":"FENGYUN 1C DEB","OBJECT_ID":"1999-025CQK","EPOCH":"2026-04-25T01:33:27.550944","MEAN_MOTION":14.37976547,"ECCENTRICITY":0.00781281,"INCLINATION":98.9079,"RA_OF_ASC_NODE":337.8611,"ARG_OF_PERICENTER":320.6893,"MEAN_ANOMALY":38.8637,"EPHEMERIS_TYPE":0,"CLASSIFICATION_TYPE":"U","NORAD_CAT_ID":32093,"ELEMENT_SET_NO":999,"REV_AT_EPOCH":98433,"BSTAR":0.00023672647,"MEAN_MOTION_DOT":6.92e-6,"MEAN_MOTION_DDOT":0},{"OBJECT_NAME":"FENGYUN 1C DEB","OBJECT_ID":"1999-025CQL","EPOCH":"2026-04-20T22:02:17.971584","MEAN_MOTION":14.10919628,"ECCENTRICITY":0.0033552,"INCLINATION":98.7563,"RA_OF_ASC_NODE":102.9678,"ARG_OF_PERICENTER":262.0129,"MEAN_ANOMALY":97.7234,"EPHEMERIS_TYPE":0,"CLASSIFICATION_TYPE":"U","NORAD_CAT_ID":32094,"ELEMENT_SET_NO":999,"REV_AT_EPOCH":96186,"BSTAR":0.00024325845,"MEAN_MOTION_DOT":3.95e-6,"MEAN_MOTION_DDOT":0},{"OBJECT_NAME":"FENGYUN 1C DEB","OBJECT_ID":"1999-025CQM","EPOCH":"2026-04-25T18:30:37.526688","MEAN_MOTION":14.16209552,"ECCENTRICITY":0.0079184,"INCLINATION":98.6336,"RA_OF_ASC_NODE":132.3862,"ARG_OF_PERICENTER":68.0643,"MEAN_ANOMALY":292.8925,"EPHEMERIS_TYPE":0,"CLASSIFICATION_TYPE":"U","NORAD_CAT_ID":32095,"ELEMENT_SET_NO":999,"REV_AT_EPOCH":96714,"BSTAR":0.00022356,"MEAN_MOTION_DOT":4.14e-6,"MEAN_MOTION_DDOT":0},{"OBJECT_NAME":"FENGYUN 1C DEB","OBJECT_ID":"1999-025CQN","EPOCH":"2026-04-23T00:55:01.791552","MEAN_MOTION":13.9056649,"ECCENTRICITY":0.01377311,"INCLINATION":99.0564,"RA_OF_ASC_NODE":143.8293,"ARG_OF_PERICENTER":143.6711,"MEAN_ANOMALY":217.3895,"EPHEMERIS_TYPE":0,"CLASSIFICATION_TYPE":"U","NORAD_CAT_ID":32096,"ELEMENT_SET_NO":999,"REV_AT_EPOCH":94686,"BSTAR":0.00081382271,"MEAN_MOTION_DOT":1.052e-5,"MEAN_MOTION_DDOT":0},{"OBJECT_NAME":"FENGYUN 1C DEB","OBJECT_ID":"1999-025CQQ","EPOCH":"2026-04-18T17:01:27.892704","MEAN_MOTION":14.20525814,"ECCENTRICITY":0.01955778,"INCLINATION":98.6224,"RA_OF_ASC_NODE":103.0116,"ARG_OF_PERICENTER":112.5336,"MEAN_ANOMALY":249.667,"EPHEMERIS_TYPE":0,"CLASSIFICATION_TYPE":"U","NORAD_CAT_ID":32098,"ELEMENT_SET_NO":999,"REV_AT_EPOCH":66030,"BSTAR":0.00019237902,"MEAN_MOTION_DOT":4.58e-6,"MEAN_MOTION_DDOT":0},{"OBJECT_NAME":"FENGYUN 1C DEB","OBJECT_ID":"1999-025CQT","EPOCH":"2026-04-25T12:51:29.734848","MEAN_MOTION":14.02445821,"ECCENTRICITY":0.0117464,"INCLINATION":99.0293,"RA_OF_ASC_NODE":18.3873,"ARG_OF_PERICENTER":227.2857,"MEAN_ANOMALY":131.8373,"EPHEMERIS_TYPE":0,"CLASSIFICATION_TYPE":"U","NORAD_CAT_ID":32101,"ELEMENT_SET_NO":999,"REV_AT_EPOCH":95057,"BSTAR":0.0010562,"MEAN_MOTION_DOT":1.68e-5,"MEAN_MOTION_DDOT":0}]
